{
  "type": "FeatureCollection",
  "features": [
    {
      "type": "Feature",
      "properties": {
        "norad_id": 36744,
        "name": "COMS 1",
        "group": "weather",
        "lat": 0.0838271158093548,
        "lon": 78.84898753803826,
        "alt_km": 35791.45452749766,
        "timestamp": "2025-12-04T15:47:53.739063+00:00",
        "meta_object_name": "COMS 1",
        "meta_object_id": "2010-032A",
        "meta_epoch": "2025-12-04T05:46:30.906336",
        "meta_mean_motion": 1.00269698,
        "meta_eccentricity": 0.00011237,
        "meta_inclination": 4.3192,
        "meta_ra_of_asc_node": 78.0925,
        "meta_arg_of_pericenter": 187.107,
        "meta_mean_anomaly": 22.9126,
        "meta_ephemeris_type": 0,
        "meta_classification_type": "U",
        "meta_norad_cat_id": 36744,
        "meta_element_set_no": 999,
        "meta_rev_at_epoch": 4913,
        "meta_bstar": 0,
        "meta_mean_motion_dot": -3.31e-06,
        "meta_mean_motion_ddot": 0,
        "tle_line1": "1 36744U 10032A   25338.24063549 -.00000331  00000+0  00000+0 0  9990",
        "tle_line2": "2 36744   4.3192  78.0925 0001123 187.1070  22.9126  1.00269698 49137"
      },
      "geometry": {
        "type": "Point",
        "coordinates": [
          78.84898753803826,
          0.0838271158093548
        ]
      }
    },
    {
      "type": "Feature",
      "properties": {
        "norad_id": 37214,
        "name": "FENGYUN 3B",
        "group": "weather",
        "lat": -62.15271447869174,
        "lon": 36.01966459318734,
        "alt_km": 848.4546942095922,
        "timestamp": "2025-12-04T15:47:53.739089+00:00",
        "meta_object_name": "FENGYUN 3B",
        "meta_object_id": "2010-059A",
        "meta_epoch": "2025-12-04T08:02:54.648672",
        "meta_mean_motion": 14.14786223,
        "meta_eccentricity": 0.00224079,
        "meta_inclination": 98.992,
        "meta_ra_of_asc_node": 18.2536,
        "meta_arg_of_pericenter": 21.4628,
        "meta_mean_anomaly": 71.5929,
        "meta_ephemeris_type": 0,
        "meta_classification_type": "U",
        "meta_norad_cat_id": 37214,
        "meta_element_set_no": 999,
        "meta_rev_at_epoch": 77987,
        "meta_bstar": 0.00013624594,
        "meta_mean_motion_dot": 2.18e-06,
        "meta_mean_motion_ddot": 0,
        "tle_line1": "1 37214U 10059A   25338.33535473  .00000218  00000+0  13625-3 0  9996",
        "tle_line2": "2 37214  98.9920  18.2536 0022407  21.4628  71.5929 14.14786223779878"
      },
      "geometry": {
        "type": "Point",
        "coordinates": [
          36.01966459318734,
          -62.15271447869174
        ]
      }
    },
    {
      "type": "Feature",
      "properties": {
        "norad_id": 37849,
        "name": "SUOMI NPP",
        "group": "weather",
        "lat": 0.3145203848871929,
        "lon": -83.9755809077631,
        "alt_km": 830.8423172427774,
        "timestamp": "2025-12-04T15:47:53.739104+00:00",
        "meta_object_name": "SUOMI NPP",
        "meta_object_id": "2011-061A",
        "meta_epoch": "2025-12-04T07:20:18.212640",
        "meta_mean_motion": 14.19510591,
        "meta_eccentricity": 0.00019301,
        "meta_inclination": 98.776,
        "meta_ra_of_asc_node": 275.7238,
        "meta_arg_of_pericenter": 135.3321,
        "meta_mean_anomaly": 224.8011,
        "meta_ephemeris_type": 0,
        "meta_classification_type": "U",
        "meta_norad_cat_id": 37849,
        "meta_element_set_no": 999,
        "meta_rev_at_epoch": 73079,
        "meta_bstar": 0.00012317524,
        "meta_mean_motion_dot": 2.15e-06,
        "meta_mean_motion_ddot": 0,
        "tle_line1": "1 37849U 11061A   25338.30576635  .00000215  00000+0  12318-3 0  9991",
        "tle_line2": "2 37849  98.7760 275.7238 0001930 135.3321 224.8011 14.19510591730795"
      },
      "geometry": {
        "type": "Point",
        "coordinates": [
          -83.9755809077631,
          0.3145203848871929
        ]
      }
    },
    {
      "type": "Feature",
      "properties": {
        "norad_id": 38552,
        "name": "METEOSAT-10 (MSG-3)",
        "group": "weather",
        "lat": -3.9398423910807288,
        "lon": -49.249583397036545,
        "alt_km": 35783.36898977765,
        "timestamp": "2025-12-04T15:47:53.739117+00:00",
        "meta_object_name": "METEOSAT-10 (MSG-3)",
        "meta_object_id": "2012-035B",
        "meta_epoch": "2025-12-04T01:44:31.731072",
        "meta_mean_motion": 1.00272508,
        "meta_eccentricity": 8.021e-05,
        "meta_inclination": 4.2071,
        "meta_ra_of_asc_node": 61.7359,
        "meta_arg_of_pericenter": 221.6691,
        "meta_mean_anomaly": 175.985,
        "meta_ephemeris_type": 0,
        "meta_classification_type": "U",
        "meta_norad_cat_id": 38552,
        "meta_element_set_no": 999,
        "meta_rev_at_epoch": 4890,
        "meta_bstar": 0,
        "meta_mean_motion_dot": 8e-08,
        "meta_mean_motion_ddot": 0,
        "tle_line1": "1 38552U 12035B   25338.07258948  .00000008  00000+0  00000+0 0  9994",
        "tle_line2": "2 38552   4.2071  61.7359 0000802 221.6691 175.9850  1.00272508 48908"
      },
      "geometry": {
        "type": "Point",
        "coordinates": [
          -49.249583397036545,
          -3.9398423910807288
        ]
      }
    },
    {
      "type": "Feature",
      "properties": {
        "norad_id": 38771,
        "name": "METOP-B",
        "group": "weather",
        "lat": 21.902181849929306,
        "lon": -147.72481499138817,
        "alt_km": 818.4904795550474,
        "timestamp": "2025-12-04T15:47:53.739129+00:00",
        "meta_object_name": "METOP-B",
        "meta_object_id": "2012-049A",
        "meta_epoch": "2025-12-04T06:36:41.517792",
        "meta_mean_motion": 14.21403692,
        "meta_eccentricity": 0.00025358,
        "meta_inclination": 98.6811,
        "meta_ra_of_asc_node": 28.3773,
        "meta_arg_of_pericenter": 163.2075,
        "meta_mean_anomaly": 196.9186,
        "meta_ephemeris_type": 0,
        "meta_classification_type": "U",
        "meta_norad_cat_id": 38771,
        "meta_element_set_no": 999,
        "meta_rev_at_epoch": 68557,
        "meta_bstar": 0.00016412561,
        "meta_mean_motion_dot": 3.15e-06,
        "meta_mean_motion_ddot": 0,
        "tle_line1": "1 38771U 12049A   25338.27548053  .00000315  00000+0  16413-3 0  9993",
        "tle_line2": "2 38771  98.6811  28.3773 0002535 163.2075 196.9186 14.21403692685573"
      },
      "geometry": {
        "type": "Point",
        "coordinates": [
          -147.72481499138817,
          21.902181849929306
        ]
      }
    },
    {
      "type": "Feature",
      "properties": {
        "norad_id": 39216,
        "name": "INSAT-3D",
        "group": "weather",
        "lat": -0.09578189892997346,
        "lon": 80.20513096413983,
        "alt_km": 35792.792303482245,
        "timestamp": "2025-12-04T15:47:53.739141+00:00",
        "meta_object_name": "INSAT-3D",
        "meta_object_id": "2013-038B",
        "meta_epoch": "2025-12-04T07:29:36.995136",
        "meta_mean_motion": 1.00273364,
        "meta_eccentricity": 0.00017693,
        "meta_inclination": 1.4214,
        "meta_ra_of_asc_node": 85.087,
        "meta_arg_of_pericenter": 155.9886,
        "meta_mean_anomaly": 74.2409,
        "meta_ephemeris_type": 0,
        "meta_classification_type": "U",
        "meta_norad_cat_id": 39216,
        "meta_element_set_no": 999,
        "meta_rev_at_epoch": 4512,
        "meta_bstar": 0,
        "meta_mean_motion_dot": -3.24e-06,
        "meta_mean_motion_ddot": 0,
        "tle_line1": "1 39216U 13038B   25338.31223374 -.00000324  00000+0  00000+0 0  9990",
        "tle_line2": "2 39216   1.4214  85.0870 0001769 155.9886  74.2409  1.00273364 45122"
      },
      "geometry": {
        "type": "Point",
        "coordinates": [
          80.20513096413983,
          -0.09578189892997346
        ]
      }
    },
    {
      "type": "Feature",
      "properties": {
        "norad_id": 39260,
        "name": "FENGYUN 3C",
        "group": "weather",
        "lat": -30.531226252271047,
        "lon": 131.6874183005392,
        "alt_km": 836.0195681259866,
        "timestamp": "2025-12-04T15:47:53.739152+00:00",
        "meta_object_name": "FENGYUN 3C",
        "meta_object_id": "2013-052A",
        "meta_epoch": "2025-12-04T06:19:25.484160",
        "meta_mean_motion": 14.15692416,
        "meta_eccentricity": 0.00138611,
        "meta_inclination": 98.4754,
        "meta_ra_of_asc_node": 316.3571,
        "meta_arg_of_pericenter": 221.4857,
        "meta_mean_anomaly": 138.5267,
        "meta_ephemeris_type": 0,
        "meta_classification_type": "U",
        "meta_norad_cat_id": 39260,
        "meta_element_set_no": 999,
        "meta_rev_at_epoch": 63098,
        "meta_bstar": 0.00015139245,
        "meta_mean_motion_dot": 2.56e-06,
        "meta_mean_motion_ddot": 0,
        "tle_line1": "1 39260U 13052A   25338.26348940  .00000256  00000+0  15139-3 0  9992",
        "tle_line2": "2 39260  98.4754 316.3571 0013861 221.4857 138.5267 14.15692416630980"
      },
      "geometry": {
        "type": "Point",
        "coordinates": [
          131.6874183005392,
          -30.531226252271047
        ]
      }
    }
  ]
}